NORAD_CAT_ID,OBJECT_NAME,OBJECT_TYPE,EPOCH,MEAN_MOTION,ECCENTRICITY,INCLINATION,RA_OF_ASC_NODE,ARG_OF_PERICENTER,MEAN_ANOMALY,BSTAR,MEAN_MOTION_DOT,MEAN_MOTION_DDOT,TLE_LINE0,TLE_LINE1,TLE_LINE2,SEMIMAJOR_AXIS,PERIOD,APOGEE,PERIGEE,DECAYED
53527.0,STARLINK-4511,PAYLOAD,2024-04-24 13:58:19,15.08836605,0.0001464,53.2171,265.1968,101.0033,259.1124,6.4338e-06,-1.86e-06,0.0,0 STARLINK-4511,1 53527U 22101A   24115.58216968 -.00000186  00000-0  64338-5 0  9991,2 53527  53.2171 265.1968 0001464 101.0033 259.1124 15.08836605 92886,6917.891,95.438,540.769,538.743,0.0
53527.0,STARLINK-4511,PAYLOAD,2024-04-24 15:33:42,15.0883812,0.0001376,53.2168,264.8993,90.0984,270.0165,5.0693e-05,5.19e-06,0.0,0 STARLINK-4511,1 53527U 22101A   24115.64840963  .00000519  00000-0  50693-4 0  9993,2 53527  53.2168 264.8993 0001376  90.0984 270.0165 15.08838120 92892,6917.886,95.438,540.703,538.799,0.0
53527.0,STARLINK-4511,PAYLOAD,2024-04-25 13:49:06,15.08837651,0.000129,53.2165,260.74,91.8375,268.2765,4.7541e-05,4.69e-06,0.0,0 STARLINK-4511,1 53527U 22101A   24116.57577401  .00000469  00000-0  47541-4 0  9992,2 53527  53.2165 260.7400 0001290  91.8375 268.2765 15.08837651 93035,6917.888,95.438,540.645,538.86,0.0
53527.0,STARLINK-4511,PAYLOAD,2024-04-25 16:59:52,15.08843915,0.0001451,53.2176,260.145,73.0999,287.0152,0.00012477,1.699e-05,0.0,0 STARLINK-4511,1 53527U 22101A   24116.70825221  .00001699  00000-0  12477-3 0  9998,2 53527  53.2176 260.1450 0001451  73.0999 287.0152 15.08843915 93050,6917.868,95.437,540.737,538.73,0.0
53527.0,STARLINK-4511,PAYLOAD,2024-04-26 13:39:54,15.08838314,0.0001702,53.2177,256.28,57.9032,302.2125,0.00036271,5.489e-05,0.0,0 STARLINK-4511,1 53527U 22101A   24117.56937831  .00005489  00000-0  36271-3 0  9993,2 53527  53.2177 256.2800 0001702  57.9032 302.2125 15.08838314 93185,6917.886,95.438,540.928,538.573,0.0
53527.0,STARLINK-4511,PAYLOAD,2024-04-26 16:50:39,15.0885927,0.0001359,53.2169,255.6845,87.791,272.3237,0.00051493,7.921e-05,0.0,0 STARLINK-4511,1 53527U 22101A   24117.70184915  .00007921  00000-0  51493-3 0  9992,2 53527  53.2169 255.6845 0001359  87.7910 272.3237 15.08859270 93200,6917.821,95.436,540.627,538.746,0.0
53527.0,STARLINK-4511,PAYLOAD,2024-04-27 02:22:58,15.08843488,0.0001625,53.2175,253.901,77.2202,282.8971,0.00011687,1.573e-05,0.0,0 STARLINK-4511,1 53527U 22101A   24118.09929336  .00001573  00000-0  11687-3 0  9997,2 53527  53.2175 253.9010 0001625  77.2202 282.8971 15.08843488 93267,6917.87,95.437,540.859,538.611,0.0
53527.0,STARLINK-4511,PAYLOAD,2024-04-27 15:06:03,15.08838573,0.0001128,53.2164,251.5179,121.9954,238.1148,-4.07e-05,-9.35e-06,0.0,0 STARLINK-4511,1 53527U 22101A   24118.62921269 -.00000935  00000-0 -40700-4 0  9995,2 53527  53.2164 251.5179 0001128 121.9954 238.1148 15.08838573 93342,6917.885,95.438,540.53,538.969,0.0
53527.0,STARLINK-4511,PAYLOAD,2024-04-28 14:56:51,15.08835449,0.0001398,53.2181,247.0601,95.2636,264.8516,-0.00019183,-3.339e-05,0.0,0 STARLINK-4511,1 53527U 22101A   24119.62281966 -.00003339  00000-0 -19183-3 0  9990,2 53527  53.2181 247.0601 0001398  95.2636 264.8516 15.08835449 93490,6917.894,95.438,540.726,538.792,0.0
53527.0,STARLINK-4511,PAYLOAD,2024-04-29 14:47:38,15.08840479,0.000129,53.2171,242.6005,92.8794,267.2346,0.00028432,4.24e-05,0.0,0 STARLINK-4511,1 53527U 22101A   24120.61642143  .00004240  00000-0  28432-3 0  9996,2 53527  53.2171 242.6005 0001290  92.8794 267.2346 15.08840479 93641,6917.879,95.438,540.636,538.852,0.0
53527.0,STARLINK-4511,PAYLOAD,2024-04-30 14:38:25,15.08845296,0.0001258,53.2174,238.1389,86.6314,273.4822,0.00022047,3.223e-05,0.0,0 STARLINK-4511,1 53527U 22101A   24121.61001989  .00003223  00000-0  22047-3 0  9990,2 53527  53.2174 238.1389 0001258  86.6314 273.4822 15.08845296 93798,6917.864,95.437,540.599,538.859,0.0
53527.0,STARLINK-4511,PAYLOAD,2024-05-01 00:10:44,15.08842655,0.000125,53.2171,236.3549,84.9954,275.118,0.00012434,1.692e-05,0.0,0 STARLINK-4511,1 53527U 22101A   24122.00746044  .00001692  00000-0  12434-3 0  9999,2 53527  53.2171 236.3549 0001250  84.9954 275.1180 15.08842655 93855,6917.872,95.437,540.602,538.873,0.0
53527.0,STARLINK-4511,PAYLOAD,2024-05-01 14:29:12,15.08847423,0.0001195,53.2166,233.6778,82.5561,277.5567,6.0443e-05,6.74e-06,0.0,0 STARLINK-4511,1 53527U 22101A   24122.60361536  .00000674  00000-0  60443-4 0  9997,2 53527  53.2166 233.6778 0001195  82.5561 277.5567 15.08847423 93942,6917.858,95.437,540.549,538.896,0.0
53527.0,STARLINK-4511,PAYLOAD,2024-05-01 17:39:58,15.08845492,0.0001065,53.2156,233.0856,86.2612,273.8502,1.3476e-06,-2.66e-06,0.0,0 STARLINK-4511,1 53527U 22101A   24122.73609599 -.00000266  00000-0  13476-5 0  9998,2 53527  53.2156 233.0856 0001065  86.2612 273.8502 15.08845492 93960,6917.864,95.437,540.465,538.992,0.0
53527.0,STARLINK-4511,PAYLOAD,2024-05-02 00:01:33,15.08816404,0.0001439,53.2173,231.8927,76.7758,283.3394,-0.00013389,-2.417e-05,0.0,0 STARLINK-4511,1 53527U 22101A   24123.00108412 -.00002417  00000-0 -13389-3 0  9999,2 53527  53.2173 231.8927 0001439  76.7758 283.3394 15.08816404 94006,6917.953,95.439,540.813,538.822,0.0
53527.0,STARLINK-4511,PAYLOAD,2024-05-02 12:44:37,15.08838352,0.0001101,53.2161,229.5171,91.0019,269.11,6.3712e-05,7.26e-06,0.0,0 STARLINK-4511,1 53527U 22101A   24123.53099314  .00000726  00000-0  63712-4 0  9992,2 53527  53.2161 229.5171 0001101  91.0019 269.1100 15.08838352 94085,6917.885,95.438,540.512,538.989,0.0
53527.0,STARLINK-4511,PAYLOAD,2024-05-02 14:20:00,15.08838646,0.0001114,53.2162,229.2197,91.7923,268.3196,6.251e-05,7.07e-06,0.0,0 STARLINK-4511,1 53527U 22101A   24123.59723308  .00000707  00000-0  62510-4 0  9999,2 53527  53.2162 229.2197 0001114  91.7923 268.3196 15.08838646 94099,6917.885,95.438,540.52,538.979,0.0
53527.0,STARLINK-4511,PAYLOAD,2024-05-02 23:52:19,15.08846051,0.0001213,53.2176,227.4351,87.0212,273.0919,0.00014917,2.087e-05,0.0,0 STARLINK-4511,1 53527U 22101A   24123.99466650  .00002087  00000-0  14917-3 0  9997,2 53527  53.2176 227.4351 0001213  87.0212 273.0919 15.08846051 94157,6917.862,95.437,540.566,538.888,0.0
53527.0,STARLINK-4511,PAYLOAD,2024-05-03 14:10:47,15.08847348,0.0001473,53.2169,224.7582,85.7353,274.3807,0.00051155,7.864e-05,0.0,0 STARLINK-4511,1 53527U 22101A   24124.59082808  .00007864  00000-0  51155-3 0  9996,2 53527  53.2169 224.7582 0001473  85.7353 274.3807 15.08847348 94244,6917.858,95.437,540.742,538.704,0.0
53527.0,STARLINK-4511,PAYLOAD,2024-05-03 23:43:06,15.08838623,0.0001635,53.217,222.9743,92.2106,267.9074,0.00042227,6.439e-05,0.0,0 STARLINK-4511,1 53527U 22101A   24124.98827299  .00006439  00000-0  42227-3 0  9997,2 53527  53.2170 222.9743 0001635  92.2106 267.9074 15.08838623 94301,6917.885,95.438,540.881,538.619,0.0
53527.0,STARLINK-4511,PAYLOAD,2024-05-04 12:26:12,15.08841971,0.0001451,53.2178,220.5955,99.8335,260.2821,1.8393e-05,5e-08,0.0,0 STARLINK-4511,1 53527U 22101A   24125.51819761  .00000005  00000-0  18393-4 0  9993,2 53527  53.2178 220.5955 0001451  99.8335 260.2821 15.08841971 94385,6917.874,95.437,540.743,538.736,0.0
53527.0,STARLINK-4511,PAYLOAD,2024-05-04 23:33:53,15.08850911,0.0001313,53.2164,218.5142,91.5956,268.5187,5.6333e-05,6.09e-06,0.0,0 STARLINK-4511,1 53527U 22101A   24125.98186659  .00000609  00000-0  56333-4 0  9993,2 53527  53.2164 218.5142 0001313  91.5956 268.5187 15.08850911 94458,6917.847,95.437,540.62,538.804,0.0
53527.0,STARLINK-4511,PAYLOAD,2024-05-05 12:16:57,15.08862489,0.0001231,53.2158,216.1349,96.2006,263.9126,0.00031881,4.793e-05,0.0,0 STARLINK-4511,1 53527U 22101A   24126.51177815  .00004793  00000-0  31881-3 0  9995,2 53527  53.2158 216.1349 0001231  96.2006 263.9126 15.08862489 94535,6917.812,95.436,540.528,538.825,0.0
53527.0,STARLINK-4511,PAYLOAD,2024-05-05 23:24:39,15.08858268,0.0001198,53.2159,214.0536,94.4008,265.7121,0.00031329,4.704e-05,0.0,0 STARLINK-4511,1 53527U 22101A   24126.97545725  .00004704  00000-0  31329-3 0  9993,2 53527  53.2159 214.0536 0001198  94.4008 265.7121 15.08858268 94608,6917.825,95.436,540.518,538.861,0.0
53527.0,STARLINK-4511,PAYLOAD,2024-05-06 12:07:44,15.08855546,0.0001543,53.2161,211.6743,102.584,257.5325,0.00026177,3.882e-05,0.0,0 STARLINK-4511,1 53527U 22101A   24127.50537681  .00003882  00000-0  26177-3 0  9996,2 53527  53.2161 211.6743 0001543 102.5840 257.5325 15.08855546 94682,6917.833,95.437,540.765,538.63,0.0
53527.0,STARLINK-4511,PAYLOAD,2024-05-07 11:58:32,15.08841666,0.0001318,53.2164,207.2178,78.5594,281.5546,-6.5312e-05,-1.327e-05,0.0,0 STARLINK-4511,1 53527U 22101A   24128.49898282 -.00001327  00000-0 -65312-4 0  9991,2 53527  53.2164 207.2178 0001318  78.5594 281.5546 15.08841666 94833,6917.875,95.437,540.652,538.829,0.0
53527.0,STARLINK-4511,PAYLOAD,2024-05-07 15:09:18,15.08841738,0.0001196,53.2149,206.622,78.394,281.7187,-1.547e-05,-5.34e-06,0.0,0 STARLINK-4511,1 53527U 22101A   24128.63146207 -.00000534  00000-0 -15470-4 0  9999,2 53527  53.2149 206.6220 0001196  78.3940 281.7187 15.08841738 94859,6917.875,95.437,540.567,538.913,0.0
53527.0,STARLINK-4511,PAYLOAD,2024-05-08 11:49:19,15.08841732,0.0001188,53.2142,202.7549,83.517,276.5957,0.00014571,2.032e-05,0.0,0 STARLINK-4511,1 53527U 22101A   24129.49258395  .00002032  00000-0  14571-3 0  9999,2 53527  53.2142 202.7549 0001188  83.5170 276.5957 15.08841732 94982,6917.875,95.437,540.562,538.918,0.0
53527.0,STARLINK-4511,PAYLOAD,2024-05-08 21:21:37,15.0884668,0.0001094,53.2142,200.9707,80.6625,279.4491,0.00012879,1.763e-05,0.0,0 STARLINK-4511,1 53527U 22101A   24129.89002071  .00001763  00000-0  12879-3 0  9990,2 53527  53.2142 200.9707 0001094  80.6625 279.4491 15.08846680 95047,6917.86,95.437,540.482,538.968,0.0
53527.0,STARLINK-4511,PAYLOAD,2024-05-09 05:18:33,15.08842334,0.0001232,53.2152,199.4839,81.1997,278.9134,0.00019504,2.818e-05,0.0,0 STARLINK-4511,1 53527U 22101A   24130.22122421  .00002818  00000-0  19504-3 0  9995,2 53527  53.2152 199.4839 0001232  81.1997 278.9134 15.08842334 95093,6917.873,95.437,540.591,538.886,0.0
